OBJECT_NAME,OBJECT_ID,EPOCH,MEAN_MOTION,ECCENTRICITY,INCLINATION,RA_OF_ASC_NODE,ARG_OF_PERICENTER,MEAN_ANOMALY,EPHEMERIS_TYPE,CLASSIFICATION_TYPE,NORAD_CAT_ID,ELEMENT_SET_NO,REV_AT_EPOCH,BSTAR,MEAN_MOTION_DOT,MEAN_MOTION_DDOT
HAWK-6B,2023-011A,2026-06-07T09:53:13.459776,15.22842694,.0003999,40.4987,49.0839,308.4007,51.6443,0,U,55324,999,18635,.21517E-3,.495E-4,0
HAWK-6C,2023-011C,2026-06-07T00:25:40.706400,15.22846078,.000458,40.4979,48.2214,296.5763,63.4577,0,U,55326,999,18630,.22379E-3,.5158E-4,0
HAWK-6A,2023-011D,2026-06-06T10:15:48.597120,15.22834948,.00042951,40.4987,53.2869,292.3056,67.7298,0,U,55327,999,18621,.24210657E-3,.5594E-4,0
HAWK-7A,2023-054P,2026-06-07T16:13:22.504224,15.27257398,.0004571,97.2715,46.2556,79.2385,280.9368,0,U,56191,999,17557,.7416E-4,.1909E-4,0
HAWK-7B,2023-054R,2026-06-07T16:13:15.572352,15.27264537,.0004,97.2737,44.5153,87.3912,272.7786,0,U,56193,999,17557,.23831E-3,.6295E-4,0
HAWK-7C,2023-054Y,2026-06-07T16:13:05.727936,15.27261956,.0004128,97.2714,45.2868,79.6957,280.4748,0,U,56200,999,17557,.23786E-3,.6283E-4,0
